KUIPER-00246            
1 67151U 25301U   26009.22682638  .00030039  00000+0  83788-3 0  9996
2 67151  51.8738 352.4728 0004022 153.0816 207.0380 15.36493458  4616
KUIPER-00247            
1 67152U 25301V   26009.25754704  .00017590  00000+0  52809-3 0  9991
2 67152  51.8646 352.6602 0011167 196.8407 163.2209 15.34466318  4590
KUIPER-00248            
1 67153U 25301W   26009.24620081  .00028665  00000+0  83255-3 0  9995
2 67153  51.8688 352.5951 0008437 181.8099 178.2858 15.35228480  4762
KUIPER-00249            
1 67154U 25301X   26009.24330995  .00026221  00000+0  75400-3 0  9997
2 67154  51.8660 352.5736 0008497 180.7490 179.3485 15.35589846  4598
KUIPER-00250            
1 67155U 25301Y   26009.23531155  .00032621  00000+0  91960-3 0  9998
2 67155  51.8719 352.5282 0006743 169.6297 190.4829 15.36107502  4629
KUIPER-00251            
1 67156U 25301Z   26009.24565938  .00024433  00000+0  71224-3 0  9999
2 67156  51.8671 352.5903 0009040 178.3637 181.7380 15.35198236  4780
KUIPER-00252            
1 67157U 25301AA  26009.25290631  .00023011  00000+0  67855-3 0  9992
2 67157  51.8667 352.6355 0009789 190.6841 169.3938 15.34864534  4592
KUIPER-00261            
1 67158U 25301AB  26009.23450330  .00051937  00000+0  14562-2 0  9999
2 67158  51.8702 352.5218 0006048 171.1116 188.9978 15.36065772  4594
KUIPER-00265            
1 67159U 25301AC  26009.25001157 -.00268639  00000+0 -10023-1 0  9999
2 67159  51.8778 352.5032 0001670 126.9778 303.8837 15.28049685  4622
GALILEO 33              
1 67160U 25302A   25352.14605887 -.00000007  00000+0  00000+0 0  9994
2 67160  54.2406 107.2544 0008423 237.6458 122.2317  1.72906186    28
GALILEO B               
1 67161U 25302B   26007.95780000 -.00000021  00000+0  00000+0 0  9999
2 67161  54.2395 106.6121 0005078 260.5272  99.4223  1.72972217   391
GALILEO 33 (139)        
1 67162U 25302C   25356.18244914  .00000006  00000+0  00000+0 0  9992
2 67162  54.2447 107.1379 0000312 196.8367 159.4994  1.73130437   127
